BEESAT-4                
1 41619U 16040W   21191.15391210  .00002055  00000-0  83506-4 0  9996
2 41619  97.2680 246.6084 0008969 246.7444 113.2850 15.25645820268473
CAS-2T & KS-1Q          
1 41847U 16066G   21191.15615252  .00000193  00000-0  38730-4 0  9992
2 41847  98.5998 250.3809 0365872 152.4822 209.6273 14.38207533245147
NAYIF-1 (EO-88)         
1 42017U 17008BX  21190.82290799  .00002345  00000-0  87655-4 0  9998
2 42017  97.3150 258.0226 0006878  43.3257 316.8523 15.28321557244679
ZHUHAI-1 02 (CAS-4B)    
1 42759U 17034B   21191.05821263  .00000505  00000-0  43672-4 0  9999
2 42759  43.0189  56.8052 0009978 303.9389 209.7334 15.10258767224567
ZHUHAI-1 01 (CAS-4A)    
1 42761U 17034D   21191.11075897  .00000586  00000-0  48417-4 0  9994
2 42761  43.0184  55.5535 0010334 305.0682 190.8847 15.10347197224570
MAX VALIER SAT          
1 42778U 17036P   21190.76439280  .00001527  00000-0  66346-4 0  9991
2 42778  97.2534 238.6428 0013694  97.2682 263.0112 15.23694883224686
RADFXSAT (FOX-1B)       
1 43017U 17073E   21190.71819917  .00000393  00000-0  36074-4 0  9998
2 43017  97.7053  93.8247 0253648 227.5453 130.4067 14.79594391196411
FOX-1D (AO-92)          
1 43137U 18004AC  21190.76895244  .00001629  00000-0  67421-4 0  9991
2 43137  97.4062 264.5727 0010138 126.7007 233.5164 15.25350015194068
DIWATA-2B               
1 43678U 18084H   21191.05820577  .00000505  00000-0  55864-4 0  9999
2 43678  97.9261 316.4547 0009491 345.2407  14.8514 14.91766708146803
ES'HAIL 2               
1 43700U 18090A   21190.81498375  .00000153  00000-0  00000-0 0  9999
2 43700   0.0128  67.7771 0001229  75.3038 104.0717  1.00273449  9595
FOX-1CLIFF (AO-95)      
1 43770U 18099N   21190.73294320  .00000689  00000-0  67488-4 0  9991
2 43770  97.6641 260.4274 0013961 349.4508  10.6418 14.95351285141788
ITASAT 1                
1 43786U 18099AE  21190.78160192 -.00000005  00000-0  47333-5 0  9993
2 43786  97.6660 261.1688 0014567 341.4784  18.5905 14.95641443141825
JY1SAT (JO-97)          
1 43803U 18099AX  21190.74175499  .00000875  00000-0  83243-4 0  9998
2 43803  97.6623 260.8788 0014306 342.1535  17.9182 14.95894992141823
UWE-4                   
1 43880U 18111E   21190.71043266  .00000173  00000-0  20088-4 0  9990
2 43880  97.6862  98.0636 0013371  35.5094 324.7016 14.96903989138414
NEXUS (FO-99)           
1 43937U 19003F   21190.81633814  .00001707  00000-0  69016-4 0  9997
2 43937  97.1742 233.1017 0021339 295.0672  64.8351 15.25860848137672
PSAT2 (NO-104)          
1 44354U 19036R   21190.72029736  .00019883  00000-0  26003-3 0  9991
2 44354  28.5292 338.5214 0322352 157.4579 204.0528 15.14347067112352
BRICSAT2 (NO-103)       
1 44355U 19036S   21190.63919475  .00036404 -60750-5  37150-3 0  9997
2 44355  28.5284 290.2885 0255699 236.1263 121.4761 15.31663065112838
JAISAT-1                
1 44419U 19038F   21190.84795151  .00001131  00000-0  66099-4 0  9996
2 44419  97.5895 155.4686 0019545 232.5608 127.3845 15.13837388111181
DUCHIFAT-3              
1 44854U 19089C   21190.76731106  .00000561  00000-0  51138-4 0  9990
2 44854  36.9686 328.6727 0009778 317.5856  42.4132 14.99532927 86456
CAS-6 (TO-108)          
1 44881U 19093C   21191.09392130  .00000064  00000-0  14967-4 0  9999
2 44881  97.9236 269.6756 0014050 215.3786 144.6492 14.81461621 84080
RS-44 & BREEZE-KM R/B   
1 44909U 19096E   21190.83129929  .00000027  00000-0  57708-4 0  9997
2 44909  82.5217  97.9471 0218339  40.9976 320.7310 12.79710678 71687
ORBITAL FACTORY 2 (OF-2)
1 45113U 19071C   21190.98389632  .00002026  00000-0  67858-4 0  9991
2 45113  51.6428 288.2584 0012059  16.9360 343.2023 15.35946133 80635
HUSKYSAT-1 (HO-107)     
1 45119U 19071J   21190.53955204  .00002992  00000-0  94941-4 0  9997
2 45119  51.6423 289.7857 0011382  12.1394 347.9861 15.35959671 80562
BY70-2                  
1 45857U 20042B   21191.13572781  .00001415  00000-0  20733-3 0  9994
2 45857  97.9832 266.6475 0012471 135.2959 224.9261 14.77098248 54896
SALSAT                  
1 46495U 20068K   21190.88981196  .00000566  00000-0  45962-4 0  9994
2 46495  97.6945 128.2521 0016939   2.4107 357.7197 15.03490882 42705
BY70-3                  
1 46839U 20079N   21191.15050262  .00003746  00000-0  11668-3 0  9998
2 46839  97.2398 264.5567 0008630 119.0893 325.3070 15.33853597 37686
RADFXSAT-2 (AO-109)     
1 47311U 21002C   21190.76422407  .00000788  00000-0  46025-4 0  9990
2 47311  60.6851 207.6753 0039380  60.2323 300.2671 15.21727817 26269
UVSQ-SAT                
1 47438U 21006AB  21190.79913271  .00000962  00000-0  57767-4 0  9990
2 47438  97.4861 251.6221 0013361  28.1474 332.0477 15.13196109 25438
DIY-1 (ARDUIQUBE)       
1 47963U 21022AH  21190.66716168  .00002299  00000-0  15569-3 0  9991
2 47963  97.5576  92.6079 0018052 226.2341 133.7394 15.07360514 15243
